APRIZESAT 2             
1 28366U 04025A   22307.14193049  .00000254  00000+0  94328-4 0  9991
2 28366  98.1423 169.0545 0106215 278.1201  80.7948 14.36864000961734
SAUDICOMSAT 1           
1 28369U 04025D   22307.14073136  .00000571  00000+0  14895-3 0  9990
2 28369  98.4600 269.7762 0034583 109.4794 251.0142 14.52897105972042
SAUDICOMSAT 2           
1 28370U 04025E   22307.11342807  .00000593  00000+0  16997-3 0  9992
2 28370  98.5517 269.1093 0056605 302.4783  57.0945 14.47791632968711
APRIZESAT 1             
1 28372U 04025G   22307.38860053  .00000392  00000+0  11236-3 0  9999
2 28372  98.5127 269.4746 0045537 211.6215 148.2241 14.49879711970285
NANOSAT-1               
1 28493U 04049B   22307.18709187  .00001272  00000+0  20048-3 0  9996
2 28493  98.1179  48.1136 0004051 194.1130 165.9966 14.74201690960310
SAUDICOMSAT 7           
1 31119U 07012C   22306.65702829  .00001008  00000+0  20479-3 0  9990
2 31119  98.1995 251.3112 0060166  19.6848 340.6656 14.62230641828904
SAUDICOMSAT 6           
1 31121U 07012E   22306.56762190  .00000648  00000+0  14254-3 0  9993
2 31121  98.2388 246.4902 0077189 122.5123 238.3565 14.58998224827082
SAUDICOMSAT 5           
1 31124U 07012H   22307.17573374  .00001109  00000+0  21740-3 0  9999
2 31124  98.1690 253.2868 0050444 323.2192  36.5553 14.63975963829952
SAUDICOMSAT 3           
1 31125U 07012J   22306.65172160  .00001090  00000+0  20644-3 0  9991
2 31125  98.1350 254.1019 0041423 268.6206  91.0252 14.65822289830755
SAUDICOMSAT 4           
1 31127U 07012L   22306.66536924  .00000868  00000+0  18199-3 0  9990
2 31127  98.2218 249.7339 0068880  68.2214 292.6297 14.60732543828051
APRIZESAT 4             
1 35684U 09041D   22306.79074236  .00000863  00000+0  12049-3 0  9996
2 35684  98.3066 325.1620 0045350 267.9187  91.6830 14.79809826715527
APRIZESAT 3             
1 35686U 09041F   22307.49284135  .00001705  00000+0  18240-3 0  9992
2 35686  98.1037  37.2418 0073023  91.9372 269.0209 14.88206724719332
AISSAT 1                
1 36797U 10035C   22307.11500524  .00001927  00000+0  21913-3 0  9990
2 36797  98.2366 136.2268 0012134  80.4025 279.8560 14.87462162667182
S-NET D                 
1 43186U 18014G   22306.61986376  .00004203  00000+0  35622-3 0  9994
2 43186  97.6462 209.6587 0010359 180.5537 179.5676 14.98459100259606
S-NET B                 
1 43187U 18014H   22307.02086002  .00004272  00000+0  36201-3 0  9998
2 43187  97.6460 209.9968 0010366 179.0173 181.1072 14.98460345259666
S-NET A                 
1 43188U 18014J   22306.62050626  .00004216  00000+0  35731-3 0  9992
2 43188  97.6463 209.6758 0010309 180.5023 179.6191 14.98457030259607
S-NET C                 
1 43189U 18014K   22306.62148480  .00004197  00000+0  35578-3 0  9996
2 43189  97.6460 209.5920 0010261 180.2575 179.8644 14.98454116258157
SALSAT                  
1 46495U 20068K   22306.40880736  .00003723  00000+0  26479-3 0  9998
2 46495  97.7410 247.8800 0016571 164.4421 195.7318 15.05186779114930
